#dP2021  3 17  0  0  0.00000000      96 __u+U ITR00 FIT  IAC
## 2149 259200.00000000   900.00000000 59290 0.0000000000000
+  116   C06C07C08C09C10C11C12C13C14C16C19C20C21C22C23C24C25
+        C26C27C28C29C30C32C33C34C35C36C37C38C39C40C41C42C43
+        C44C45C46E01E02E03E04E05E07E08E09E11E12E13E14E15E18
+        E19E21E24E25E26E27E30E31E33G01G02G03G04G05G06G07G08
+        G09G10G11G12G13G14G15G16G17G18G19G20G21G22G23G24G25
+        G26G27G28G29G30G31G32J01J02J03R01R02R03R04R05R07R08
+        R09R11R12R13R14R15R16R17R18R19R20R21R22R24  0  0  0
++        12  8  9  9 10  7  7  7  8 10  8  7  9  8  8  8  8
++         7  7  9  6  7  8  8  9  7  8  8 10  9  8  6  7  9
++         8  7  7  7  7  6  6  5  7  7  7  7  7  7  6  6  6
++         7  6  8  5  6  6  7  7  8  6  6  6  6  7  6  6  6
++         6  7  7  5  5  6  6  7  6  8  5  6  6  6  6  7  6
++         6  6  7  5  6  7  6  8 10  9  7  7  7  6  6  7  7
++         5  6  6  8  7  7  8  7  7  7  8  8  8  6  0  0  0
%c M  cc GPS ccc cccc cccc cccc cccc ccccc ccccc ccccc ccccc
%c cc cc ccc ccc cccc cccc cccc cccc ccccc ccccc ccccc ccccc
%f  0.0000000  0.000000000  0.00000000000  0.000000000000000
%f  0.0000000  0.000000000  0.00000000000  0.000000000000000
%i    0    0    0    0      0      0      0      0         0
%i    0    0    0    0      0      0      0      0         0
/* INFORMATION & ANALYSIS CENTER (IAC)      ULTRA-RAPID DATA
/* S/V CLOCKS ARE ALIGNED TO GNSS TIME                      
/* G:C1WC2W R:C1PC2P E:C1XC5X C:C2IC6I J:C1CC2S             
/* PCV:IGS14_2134 OL/AL:FES2004  NONE     YN ORB:CoN CLK:CoN
*  2021 03 17  2 45  0.00000000
PC06 -23565.727512  31017.506638  15942.115751    184.383960
PC07 -10750.962922  35187.719118  21278.853021    -24.819507
PC08 -13287.556189  17310.130013 -35994.138943   -899.947642
PC09 -10707.942411  30300.959882  27346.035008    663.277560
PC10     21.365267  41244.373614  10020.446682    -70.590304
PC11  -8421.460373  18468.110620 -19103.228452   -864.517851
PC12 -22869.486830  15402.912349  -4307.507394    870.531976
PC13   2483.580221  24425.122575 -34120.507881    183.241539
PC14  -2281.681142  27722.193899  -2562.682136    229.530253
PC16 -20383.332511  31502.170821  19109.793789   -738.050788
PC19  -4219.344446 -26730.478388  -6748.735768    764.342601
PC20   7515.378061 -24844.532240  10229.936881   -931.253091
PC21 -15323.647722   8016.606963 -21883.317707   -888.935589
PC22 -13850.806880 -13126.309814 -20344.231630   -919.916581
PC23  23961.479683  14287.149767   -594.005440   -878.137555
PC24  -8457.258119  13850.453621  22688.758286   -785.000107
PC25  12211.707542  19806.988543  15381.735948   -947.323286
PC26 -22250.819344    921.390973  16828.208045    934.384067
PC27  25708.722806  -9714.159519  -4928.661763    499.873498
PC28  19491.936211   4830.591005 -19373.152210    -97.544041
PC29  -2517.503240 -16438.026143  22405.371490    366.008600
PC30  16519.030141 -19070.363659  11951.292732    452.955672
PC32  15300.588314  -8084.195070  21909.934265   -914.276969
PC33   4355.899294  26744.123240   6720.613955   -946.641042
PC34 -15938.185256  19158.915052 -12534.226428   -717.311286
PC35 -19432.614521  -4471.757945  19503.021558   -371.231993
PC36 -11452.039943 -20085.690791 -15609.537057   -740.995104
PC37  22650.019241    277.670288 -16273.821839   -877.659588
PC38 -10339.894528  21317.599771 -34856.810228    136.298709
PC39 -18216.538955  32828.167636  19075.777680     29.452130
PC40  -4165.674387  40242.919354  12165.132918    141.694515
PC41  13869.370709  13371.981606  20238.091299   -932.830385
PC42  -7865.974452  24516.801617 -10731.515559   -940.808155
PC43   2017.887458  16742.390673 -22234.450558   -642.871403
PC44 -25367.285575  10404.376415   5079.734832     89.668166
PC45 -24027.796749 -14201.451008    666.537778    388.726793
PC46   7397.114212 -14349.751960 -22762.829754    359.545752
PE01 -15539.590642   6124.365928  24433.427400  -1067.116802
PE02  15462.168721  -6274.746849 -24452.862863    205.541448
PE03  20092.180431 -16759.919265  13831.372711   -409.715515
PE04 -11292.270654  27065.875403   4016.863381   -730.483932
PE05  17224.920948   3532.899159  23815.315716   -296.441860
PE07  -4338.783879 -21556.091431 -19805.099675   -513.706009
PE08  10967.288511 -27146.310815  -4315.048403   6032.046848
PE09   4468.534371  21386.200964  19982.513622   5732.310141
PE11  12803.209034  14266.984122 -22563.047411   6198.912594
PE12 -10393.822964  15471.659877 -22983.210989   5306.570623
PE13 -12358.851449 -14289.738425  22792.336378    413.653940
PE14  22931.626527 -12403.958379  -9852.022126  -1364.389308
PE15  10341.140687 -15448.533808  23047.955803    824.279474
PE18 -17186.601002  23748.572319  -5283.380807  -1492.019536
PE19 -20322.507906  14807.809095 -15607.419691    228.706093
PE21 -20983.397586 -13352.083504  16049.308715   -654.029193
PE24  13875.064587  26000.720204   2581.844407   -796.750247
PE25  20977.262069  13507.180848 -15920.340956   -528.643541
PE26 -28029.704225  -4469.182023   8400.352334   2033.348966
PE27 -14434.796892 -25778.841526  -1926.443571      8.854138
PE30   1398.387635 -22538.651663 -19160.032785   3100.959376
PE31   -564.330240  22968.400921  18661.144717   -479.242612
PE33 -26917.910230   7506.283005  -9729.749107   -466.604024
PG01  16914.075599  13733.342198 -15674.970295    739.477951
PG02   7784.904090 -14350.970363  21615.783910   -586.840180
PG03  13070.320989  22132.178125   6832.456432   -110.170821
PG04   7050.563251  14343.895986  21210.846332   -186.618803
PG05  -2462.686488 -24423.702273   9758.137869    -36.431793
PG06  20288.093519  -7063.437449  15721.677884      1.258402
PG07  25633.407511   7256.365166   3502.457436     92.332907
PG08    397.851458  19304.631092 -18099.438938    -14.012489
PG09  16066.881737   3595.077756  20785.719625   -331.670490
PG10 -14516.411216   3947.149736 -21783.178973    -82.554548
PG11  10707.986187  13320.600539 -20720.908786      3.217177
PG12  -9405.365918 -24670.062439   3332.802064    -14.978565
PG13  10004.185037 -21066.066036 -12726.938504    108.710368
PG14  15211.695152  -2407.931587 -21652.142322     99.830057
PG15  -3418.161979 -19338.609716 -18079.454612   -162.626966
PG16  -2077.276349  23348.959676  11783.762949   -295.166618
PG17  21000.323775 -12099.596129 -10430.108576    410.915972
PG18 -26135.942724  -4891.569346   -401.683703    350.648018
PG19  20443.153676 -16578.016160  -3421.888833    -25.372584
PG20 -18774.093652  -9740.550499 -16228.451926    524.127470
PG21   9925.655518  14638.413396 -19229.938119    103.719740
PG22   9909.002349  24621.403895  -2291.532787   -658.852571
PG23 -17123.054327  -7881.029598 -18748.358080    117.314113
PG24 -12026.211471 -15094.039303 -18648.033704      0.972165
PG25 -16285.807698 -15167.485039  14439.818664    100.298483
PG26  -7983.695279  16676.259104  18918.714444     59.111927
PG27 -10554.931934  22382.430626  -9287.466305    -95.395156
PG28  13817.818625  -5111.538398 -21549.993635    601.034989
PG29 -15624.630820  -3976.174105  21071.725466   -313.192098
PG30  25050.188164  -1637.636605  -8970.596420   -399.507361
PG31 -18611.976619   8542.371844  17078.900602   -106.039324
PG32 -20288.998114  13986.912302  -9578.545195     21.289523
PJ01 -22159.572960  31466.689883 -12616.096084   -355.714633
PJ02 -25566.350063  21582.839148  30553.447290      3.504386
PJ03 -35649.072909  21568.809751  -1952.112969     -1.856160
PR01   9283.301233   8501.603688  22192.706166     76.495338
PR02  11687.276570 -13897.104439  17987.096755    471.044850
PR03   6476.161002 -24555.802726   2721.022704     32.525848
PR04  -2195.865278 -21224.905240 -13951.788808     78.221081
PR05  -9622.300303  -6108.255897 -22808.288086     68.282207
PR07  -6141.029875  24655.377684  -1933.730159    -42.555711
PR08   2373.206379  21165.881089  14079.653474    -57.975027
PR09 -14009.322141   1658.111978  21248.256739    -16.752332
PR11  14840.454257  18594.908403   9220.087841      2.212431
PR12  20398.983853  12470.442670  -8835.813056    213.174627
PR13  14257.162653   -994.255487 -21148.663256    -52.093387
PR14   -707.834467 -14255.013865 -21133.074376     62.088665
PR15 -14797.245851 -18827.713428  -8781.489295    104.877113
PR16 -20731.996839 -11434.369490   9637.008336    -12.606685
PR17  12678.648658 -12741.511549  18095.305400    408.610446
PR18  -4759.917808  -9427.894288  23233.129149     70.040575
PR19 -19298.027740  -2035.712113  16556.399330   -136.006335
PR20 -24111.622123   7961.807486  -2126.122632    -45.400439
PR21 -11691.748679  12635.989286 -18828.179530   -194.934721
PR22   6033.171357   8931.554519 -23137.305618   -102.990118
PR24  23816.893731  -8666.713884   2877.196237     35.279415
EOF
